[
    {
        "Altitude(m)": 705913.1573839203,
        "Argument of Periapsis(deg)": 0.0034170363559881197,
        "Eccentricity": 0.0,
        "Inclination(deg)": 45.0,
        "Latitude(deg)": 38.76768285543423,
        "Longitude(deg)": -108.22435675648308,
        "Mean Anomaly(deg)": 118.00546499424425,
        "RAAN(deg)": 224.99677441756253,
        "Satellite Name": "Constellation 1 997",
        "Satellite Number": 997,
        "Semi-Major Axis(m)": 7083131.272910544,
        "Time(s)": 57
    },
    {
        "Altitude(m)": 705907.7416984465,
        "Argument of Periapsis(deg)": 0.003476984362233526,
        "Eccentricity": 0.0,
        "Inclination(deg)": 45.0,
        "Latitude(deg)": 38.74175500696438,
        "Longitude(deg)": -108.15816332927572,
        "Mean Anomaly(deg)": 118.06616613449415,
        "RAAN(deg)": 224.99671782839698,
        "Satellite Name": "Constellation 1 997",
        "Satellite Number": 997,
        "Semi-Major Axis(m)": 7083131.272910544,
        "Time(s)": 58
    },
    {
        "Altitude(m)": 705902.3197659506,
        "Argument of Periapsis(deg)": 0.003536932368478932,
        "Eccentricity": 0.0,
        "Inclination(deg)": 45.0,
        "Latitude(deg)": 38.7157848084343,
        "Longitude(deg)": -108.09202089934392,
        "Mean Anomaly(deg)": 118.12686727474403,
        "RAAN(deg)": 224.99666123923137,
        "Satellite Name": "Constellation 1 997",
        "Satellite Number": 997,
        "Semi-Major Axis(m)": 7083131.272910544,
        "Time(s)": 59
    },
    {
        "Altitude(m)": 705896.8916197227,
        "Argument of Periapsis(deg)": 0.003596880374724337,
        "Eccentricity": 0.0,
        "Inclination(deg)": 45.0,
        "Latitude(deg)": 38.68977232892649,
        "Longitude(deg)": -108.02592912918527,
        "Mean Anomaly(deg)": 118.18756841499393,
        "RAAN(deg)": 224.99660465006582,
        "Satellite Name": "Constellation 1 997",
        "Satellite Number": 997,
        "Semi-Major Axis(m)": 7083131.272910544,
        "Time(s)": 60
    },
    {
        "Altitude(m)": 705891.4572930863,
        "Argument of Periapsis(deg)": 0.0036568283809697427,
        "Eccentricity": 0.0,
        "Inclination(deg)": 45.0,
        "Latitude(deg)": 38.663717637502465,
        "Longitude(deg)": -107.9598881852065,
        "Mean Anomaly(deg)": 118.24826955524387,
        "RAAN(deg)": 224.99654806090027,
        "Satellite Name": "Constellation 1 997",
        "Satellite Number": 997,
        "Semi-Major Axis(m)": 7083131.272910544,
        "Time(s)": 61
    },
    {
        "Altitude(m)": 705886.0168194203,
        "Argument of Periapsis(deg)": 0.003716776387215149,
        "Eccentricity": 0.0,
        "Inclination(deg)": 45.0,
        "Latitude(deg)": 38.63762080320164,
        "Longitude(deg)": -107.89389806533735,
        "Mean Anomaly(deg)": 118.30897069549373,
        "RAAN(deg)": 224.99649147173469,
        "Satellite Name": "Constellation 1 997",
        "Satellite Number": 997,
        "Semi-Major Axis(m)": 7083131.272910544,
        "Time(s)": 62
    },
    {
        "Altitude(m)": 705880.5702321468,
        "Argument of Periapsis(deg)": 0.003776724393460554,
        "Eccentricity": 0.0,
        "Inclination(deg)": 45.0,
        "Latitude(deg)": 38.61148189504085,
        "Longitude(deg)": -107.82795876712865,
        "Mean Anomaly(deg)": 118.36967183574363,
        "RAAN(deg)": 224.99643488256913,
        "Satellite Name": "Constellation 1 997",
        "Satellite Number": 997,
        "Semi-Major Axis(m)": 7083131.272910544,
        "Time(s)": 63
    },
    {
        "Altitude(m)": 705875.1175647342,
        "Argument of Periapsis(deg)": 0.003836672399705959,
        "Eccentricity": 0.0,
        "Inclination(deg)": 45.0,
        "Latitude(deg)": 38.58530098201416,
        "Longitude(deg)": -107.76207028775406,
        "Mean Anomaly(deg)": 118.43037297599356,
        "RAAN(deg)": 224.99637829340352,
        "Satellite Name": "Constellation 1 997",
        "Satellite Number": 997,
        "Semi-Major Axis(m)": 7083131.272910544,
        "Time(s)": 64
    },
    {
        "Altitude(m)": 705869.6588506941,
        "Argument of Periapsis(deg)": 0.003896620405951365,
        "Eccentricity": 0.0,
        "Inclination(deg)": 45.0,
        "Latitude(deg)": 38.55907813309218,
        "Longitude(deg)": -107.69623262401151,
        "Mean Anomaly(deg)": 118.49107411624347,
        "RAAN(deg)": 224.99632170423797,
        "Satellite Name": "Constellation 1 997",
        "Satellite Number": 997,
        "Semi-Major Axis(m)": 7083131.272910544,
        "Time(s)": 65
    },
    {
        "Altitude(m)": 705864.1941235826,
        "Argument of Periapsis(deg)": 0.003956568412196771,
        "Eccentricity": 0.0,
        "Inclination(deg)": 45.0,
        "Latitude(deg)": 38.53281341722167,
        "Longitude(deg)": -107.63044577232476,
        "Mean Anomaly(deg)": 118.55177525649331,
        "RAAN(deg)": 224.9962651150724,
        "Satellite Name": "Constellation 1 997",
        "Satellite Number": 997,
        "Semi-Major Axis(m)": 7083131.272910544,
        "Time(s)": 66
    },
    {
        "Altitude(m)": 705858.7234170018,
        "Argument of Periapsis(deg)": 0.004016516418442176,
        "Eccentricity": 0.0,
        "Inclination(deg)": 45.0,
        "Latitude(deg)": 38.50650690332502,
        "Longitude(deg)": -107.56470989684092,
        "Mean Anomaly(deg)": 118.61247639674325,
        "RAAN(deg)": 224.99620852590684,
        "Satellite Name": "Constellation 1 997",
        "Satellite Number": 997,
        "Semi-Major Axis(m)": 7083131.272910544,
        "Time(s)": 67
    },
    {
        "Altitude(m)": 705853.2467646025,
        "Argument of Periapsis(deg)": 0.004076464424687581,
        "Eccentricity": 0.0,
        "Inclination(deg)": 45.0,
        "Latitude(deg)": 38.480158660299615,
        "Longitude(deg)": -107.49902465704587,
        "Mean Anomaly(deg)": 118.67317753699312,
        "RAAN(deg)": 224.99615193674123,
        "Satellite Name": "Constellation 1 997",
        "Satellite Number": 997,
        "Semi-Major Axis(m)": 7083131.272910544,
        "Time(s)": 68
    },
    {
        "Altitude(m)": 705847.7642000794,
        "Argument of Periapsis(deg)": 0.004136412430932987,
        "Eccentricity": 0.0,
        "Inclination(deg)": 45.0,
        "Latitude(deg)": 38.453768757017706,
        "Longitude(deg)": -107.4333902163454,
        "Mean Anomaly(deg)": 118.73387867724306,
        "RAAN(deg)": 224.99609534757568,
        "Satellite Name": "Constellation 1 997",
        "Satellite Number": 997,
        "Semi-Major Axis(m)": 7083131.272910544,
        "Time(s)": 69
    },
    {
        "Altitude(m)": 705842.2757571611,
        "Argument of Periapsis(deg)": 0.004196360437178394,
        "Eccentricity": 0.0,
        "Inclination(deg)": 45.0,
        "Latitude(deg)": 38.42733726232586,
        "Longitude(deg)": -107.36780656968061,
        "Mean Anomaly(deg)": 118.79457981749289,
        "RAAN(deg)": 224.99603875841012,
        "Satellite Name": "Constellation 1 997",
        "Satellite Number": 997,
        "Semi-Major Axis(m)": 7083131.272910544,
        "Time(s)": 70
    },
    {
        "Altitude(m)": 705836.7814696352,
        "Argument of Periapsis(deg)": 0.004256308443423799,
        "Eccentricity": 0.0,
        "Inclination(deg)": 45.0,
        "Latitude(deg)": 38.4008642450441,
        "Longitude(deg)": -107.3022737116246,
        "Mean Anomaly(deg)": 118.85528095774289,
        "RAAN(deg)": 224.99598216924454,
        "Satellite Name": "Constellation 1 997",
        "Satellite Number": 997,
        "Semi-Major Axis(m)": 7083131.272910544,
        "Time(s)": 71
    },
    {
        "Altitude(m)": 705831.2813713249,
        "Argument of Periapsis(deg)": 0.004316256449669204,
        "Eccentricity": 0.0,
        "Inclination(deg)": 45.0,
        "Latitude(deg)": 38.374349773966095,
        "Longitude(deg)": -107.2367916363858,
        "Mean Anomaly(deg)": 118.91598209799272,
        "RAAN(deg)": 224.995925580079,
        "Satellite Name": "Constellation 1 997",
        "Satellite Number": 997,
        "Semi-Major Axis(m)": 7083131.272910544,
        "Time(s)": 72
    },
    {
        "Altitude(m)": 705825.7754960991,
        "Argument of Periapsis(deg)": 0.00437620445591461,
        "Eccentricity": 0.0,
        "Inclination(deg)": 45.0,
        "Latitude(deg)": 38.34779391785814,
        "Longitude(deg)": -107.17136033780795,
        "Mean Anomaly(deg)": 118.97668323824263,
        "RAAN(deg)": 224.99586899091344,
        "Satellite Name": "Constellation 1 997",
        "Satellite Number": 997,
        "Semi-Major Axis(m)": 7083131.272910544,
        "Time(s)": 73
    },
    {
        "Altitude(m)": 705820.2638778768,
        "Argument of Periapsis(deg)": 0.004436152462160016,
        "Eccentricity": 0.0,
        "Inclination(deg)": 45.0,
        "Latitude(deg)": 38.321196745459,
        "Longitude(deg)": -107.10597997746879,
        "Mean Anomaly(deg)": 119.03738437849258,
        "RAAN(deg)": 224.99581240174786,
        "Satellite Name": "Constellation 1 997",
        "Satellite Number": 997,
        "Semi-Major Axis(m)": 7083131.272910544,
        "Time(s)": 74
    },
    {
        "Altitude(m)": 705814.7465506088,
        "Argument of Periapsis(deg)": 0.0044961004684054215,
        "Eccentricity": 0.0,
        "Inclination(deg)": 45.0,
        "Latitude(deg)": 38.2945583254792,
        "Longitude(deg)": -107.04065021229492,
        "Mean Anomaly(deg)": 119.09808551874242,
        "RAAN(deg)": 224.99575581258227,
        "Satellite Name": "Constellation 1 997",
        "Satellite Number": 997,
        "Semi-Major Axis(m)": 7083131.272910544,
        "Time(s)": 75
    }
]